{
    "links": {
        "self": "http://www.neowsapp.com/rest/v1/neo/3775710?api_key=iIulBulltgU6a56xZRHN4H3l9WmuAYTsLGpBGhQ2"
    },
    "id": "3775710",
    "neo_reference_id": "3775710",
    "name": "(2017 MZ)",
    "designation": "2017 MZ",
    "nasa_jpl_url": "http://ssd.jpl.nasa.gov/sbdb.cgi?sstr=3775710",
    "absolute_magnitude_h": 22.6,
    "estimated_diameter": {
        "kilometers": {
            "estimated_diameter_min": 0.0802703167,
            "estimated_diameter_max": 0.1794898848
        },
        "meters": {
            "estimated_diameter_min": 80.2703167283,
            "estimated_diameter_max": 179.4898847799
        },
        "miles": {
            "estimated_diameter_min": 0.049877647,
            "estimated_diameter_max": 0.1115298092
        },
        "feet": {
            "estimated_diameter_min": 263.3540659348,
            "estimated_diameter_max": 588.8775935812
        }
    },
    "is_potentially_hazardous_asteroid": false,
    "close_approach_data": [
        {
            "close_approach_date": "2017-06-13",
            "close_approach_date_full": "2017-Jun-13 21:57",
            "epoch_date_close_approach": 1497391020000,
            "relative_velocity": {
                "kilometers_per_second": "14.6994067286",
                "kilometers_per_hour": "52917.8642227854",
                "miles_per_hour": "32881.1029110969"
            },
            "miss_distance": {
                "astronomical": "0.0668141307",
                "lunar": "25.9906968423",
                "kilometers": "9995251.638621609",
                "miles": "6210761.3714078442"
            },
            "orbiting_body": "Earth"
        },
        {
            "close_approach_date": "2019-01-07",
            "close_approach_date_full": "2019-Jan-07 18:28",
            "epoch_date_close_approach": 1546885680000,
            "relative_velocity": {
                "kilometers_per_second": "13.8515308386",
                "kilometers_per_hour": "49865.5110190172",
                "miles_per_hour": "30984.4893328999"
            },
            "miss_distance": {
                "astronomical": "0.0960373939",
                "lunar": "37.3585462271",
                "kilometers": "14366989.567790993",
                "miles": "8927233.3561139834"
            },
            "orbiting_body": "Earth"
        },
        {
            "close_approach_date": "2076-06-30",
            "close_approach_date_full": "2076-Jun-30 18:42",
            "epoch_date_close_approach": 3360768120000,
            "relative_velocity": {
                "kilometers_per_second": "22.5809439322",
                "kilometers_per_hour": "81291.3981557749",
                "miles_per_hour": "50511.313481848"
            },
            "miss_distance": {
                "astronomical": "0.2766331568",
                "lunar": "107.6102979952",
                "kilometers": "41383731.028656016",
                "miles": "25714658.0566683808"
            },
            "orbiting_body": "Earth"
        }
    ],
    "orbital_data": {
        "orbit_id": "9",
        "orbit_determination_date": "2017-09-22 06:50:10",
        "first_observation_date": "2017-06-19",
        "last_observation_date": "2017-07-03",
        "data_arc_in_days": 14,
        "observations_used": 122,
        "orbit_uncertainty": "8",
        "minimum_orbit_intersection": ".0667164",
        "jupiter_tisserand_invariant": "4.373",
        "epoch_osculation": "2457926.5",
        "eccentricity": ".5219062088743708",
        "semi_major_axis": "1.503008760181549",
        "inclination": "6.256560766146183",
        "ascending_node_longitude": "226.9435265619227",
        "orbital_period": "673.039719089991",
        "perihelion_distance": ".7185791562502284",
        "perihelion_argument": "316.5354393897263",
        "aphelion_distance": "2.287438364112869",
        "perihelion_time": "2457867.565142415447",
        "mean_anomaly": "31.52347198635725",
        "mean_motion": ".5348867084497654",
        "equinox": "J2000",
        "orbit_class": {
            "orbit_class_type": "APO",
            "orbit_class_description": "Near-Earth asteroid orbits which cross the Earth’s orbit similar to that of 1862 Apollo",
            "orbit_class_range": "a (semi-major axis) > 1.0 AU; q (perihelion) < 1.017 AU"
        }
    },
    "is_sentry_object": false
}